OBJECT_NAME,OBJECT_ID,EPOCH,MEAN_MOTION,ECCENTRICITY,INCLINATION,RA_OF_ASC_NODE,ARG_OF_PERICENTER,MEAN_ANOMALY,EPHEMERIS_TYPE,CLASSIFICATION_TYPE,NORAD_CAT_ID,ELEMENT_SET_NO,REV_AT_EPOCH,BSTAR,MEAN_MOTION_DOT,MEAN_MOTION_DDOT
FENGYUN 3D,2017-072A,2026-06-08T11:29:41.754336,14.19738938,.0002628,99.0126,133.7442,75.3503,284.7964,0,U,43010,999,44375,.23924E-3,.46E-5,0
NOAA 20 (JPSS-1),2017-073A,2026-06-08T11:20:22.106112,14.19510222,.0000462,98.7770,99.0127,40.8084,319.3126,0,U,43013,999,44323,.51058E-4,.63E-6,0
GOES 17,2018-022A,2026-06-08T11:15:19.795968,1.00271854,.000062,0.9141,85.8713,10.4598,239.8737,0,U,43226,999,3033,0,-.167E-5,0
SENTINEL-3B,2018-039A,2026-06-08T10:09:47.629152,14.26739340,.0000858,98.6249,227.0813,77.6307,282.4969,0,U,43437,999,42287,.61797E-4,.106E-5,0
FENGYUN 2H,2018-050A,2026-06-08T12:02:57.819840,1.00271306,.0001539,3.0081,79.1745,126.5833,311.3261,0,U,43491,999,2935,0,-.115E-5,0
METOP-C,2018-087A,2026-06-08T11:32:19.157856,14.21509836,.0001438,98.6646,219.2432,139.1013,221.0272,0,U,43689,999,39359,.64649E-4,.98E-6,0
GEO-KOMPSAT-2A,2018-100A,2026-06-08T12:16:49.736928,1.00270758,.0002299,0.0500,133.1318,310.8161,125.4243,0,U,43823,999,2754,0,-.328E-5,0
METEOR-M2 2,2019-038A,2026-06-08T11:08:00.655008,14.24363294,.0002318,98.9147,146.6210,61.0284,299.1127,0,U,44387,999,36005,.35962E-4,.37E-6,0
ARKTIKA-M 1,2021-016A,2026-06-02T00:56:25.095840,2.00628509,.72832396,63.2379,59.8266,269.8643,14.6915,0,U,47719,999,3848,0,-.2E-5,0
FENGYUN 3E,2021-062A,2026-06-08T12:49:20.115840,14.19904217,.0002743,98.7497,163.0390,99.3407,260.8080,0,U,49008,999,25535,.85256E-4,.137E-5,0
GOES 18,2022-021A,2026-06-08T09:18:34.129728,1.00270309,.0000493,0.0385,138.9178,359.3563,121.1468,0,U,51850,999,650,0,.113E-5,0
NOAA 21 (JPSS-2),2022-150A,2026-06-08T10:26:42.468864,14.19563971,.0001142,98.7058,98.3714,175.3449,184.7738,0,U,54234,999,18530,.52549E-4,.67E-6,0
METEOSAT-12 (MTG-I1),2022-170C,2026-06-08T08:14:53.131200,1.00271618,.0003417,0.7281,21.4232,71.1807,287.4267,0,U,54743,999,1288,0,.7E-7,0
TIANMU-1 03,2023-039A,2026-06-08T12:18:31.375296,15.47038649,.0004122,97.5238,333.1446,120.4808,239.6848,0,U,55973,999,17949,.28332E-3,.14238E-3,0
TIANMU-1 04,2023-039B,2026-06-08T12:08:09.622752,15.47627214,.0004733,97.5174,332.2903,117.6589,242.5142,0,U,55974,999,17950,.27973E-3,.14348E-3,0
TIANMU-1 05,2023-039C,2026-06-08T11:50:13.632576,15.46963823,.0003813,97.5216,332.7425,135.3032,224.8525,0,U,55975,999,17947,.27115E-3,.13586E-3,0
TIANMU-1 06,2023-039D,2026-06-08T12:12:15.782400,15.47535020,.0004035,97.5227,333.3853,131.9121,228.2473,0,U,55976,999,17950,.28798E-3,.14726E-3,0
FENGYUN 3G,2023-055A,2026-06-08T11:34:37.967232,15.54426183,.0005596,49.9936,30.8721,164.8545,195.2592,0,U,56232,999,17865,.34384E-3,.22644E-3,0
METEOR-M2 3,2023-091A,2026-06-08T12:38:06.898272,14.24046088,.0003859,98.6085,214.6816,178.5119,181.6072,0,U,57166,999,15328,.16348E-4,-.6E-7,0
TIANMU-1 07,2023-101A,2026-06-08T11:10:39.351072,15.29706001,.0003581,97.2597,210.3350,139.7303,220.4203,0,U,57399,999,16031,.20534E-3,.5836E-4,0
TIANMU-1 08,2023-101B,2026-06-08T11:56:51.125280,15.29711262,.0005156,97.2586,210.1381,136.3604,223.8046,0,U,57400,999,16031,.20783E-3,.591E-4,0
TIANMU-1 09,2023-101C,2026-06-08T13:07:24.240576,15.29740580,.0003972,97.2544,209.6061,146.7505,213.3986,0,U,57401,999,16032,.22447E-3,.6394E-4,0
TIANMU-1 10,2023-101D,2026-06-08T12:20:34.186848,15.29710962,.0005554,97.2624,210.6160,149.1979,210.9589,0,U,57402,999,16031,.2165E-3,.616E-4,0
FENGYUN 3F,2023-111A,2026-06-08T12:26:28.000032,14.19937679,.0001574,98.6836,229.6884,99.2054,260.9300,0,U,57490,999,14763,.44949E-4,.52E-6,0
ARKTIKA-M 2,2023-198A,2026-06-03T07:17:21.587712,2.00591941,.68985494,63.2209,155.9142,267.4684,18.7857,0,U,58584,999,1804,0,.15E-5,0
TIANMU-1 11,2023-205A,2026-06-08T11:15:04.320864,15.26904912,.0009949,97.3453,181.1630,45.2601,314.9446,0,U,58645,999,13619,.2103E-3,.5491E-4,0
TIANMU-1 12,2023-205B,2026-06-08T12:06:27.745920,15.26867365,.0007795,97.3441,180.9556,32.7088,327.4632,0,U,58646,999,13618,.20575E-3,.5362E-4,0
TIANMU-1 13,2023-205C,2026-06-08T11:17:13.854336,15.26721359,.0006976,97.3469,181.1932,13.8418,346.3011,0,U,58647,999,13617,.21584E-3,.5602E-4,0
TIANMU-1 14,2023-205D,2026-06-08T12:30:40.320864,15.26766972,.0007946,97.3405,180.4321,16.9548,343.1955,0,U,58648,999,13618,.21305E-3,.5538E-4,0
TIANMU-1 19,2023-208A,2026-06-08T11:11:42.307296,15.31442358,.000456,97.4491,275.7235,4.3187,355.8093,0,U,58660,999,13599,.2611E-3,.7852E-4,0
TIANMU-1 20,2023-208B,2026-06-08T12:15:53.275392,15.32635421,.0006806,97.4434,276.3946,7.0598,353.0739,0,U,58661,999,13609,.2567E-3,.8016E-4,0
