FENGYUN 3D              
1 43010U 17072A   26159.47895549  .00000460  00000+0  23924-3 0  9991
2 43010  99.0126 133.7442 0002628  75.3503 284.7964 14.19738938443758
NOAA 20 (JPSS-1)        
1 43013U 17073A   26159.47247808  .00000063  00000+0  51058-4 0  9993
2 43013  98.7770  99.0127 0000462  40.8084 319.3126 14.19510222443233
GOES 17                 
1 43226U 18022A   26159.46897912 -.00000167  00000+0  00000+0 0  9992
2 43226   0.9141  85.8713 0000620  10.4598 239.8737  1.00271854 30337
SENTINEL-3B             
1 43437U 18039A   26159.42346793  .00000106  00000+0  61797-4 0  9993
2 43437  98.6249 227.0813 0000858  77.6307 282.4969 14.26739340422877
FENGYUN 2H              
1 43491U 18050A   26159.50205810 -.00000115  00000+0  00000+0 0  9995
2 43491   3.0081  79.1745 0001539 126.5833 311.3261  1.00271306 29350
METOP-C                 
1 43689U 18087A   26159.48077729  .00000098  00000+0  64649-4 0  9990
2 43689  98.6646 219.2432 0001438 139.1013 221.0272 14.21509836393592
GEO-KOMPSAT-2A          
1 43823U 18100A   26159.51168677 -.00000328  00000+0  00000+0 0  9996
2 43823   0.0500 133.1318 0002299 310.8161 125.4243  1.00270758 27548
METEOR-M2 2             
1 44387U 19038A   26159.46389647  .00000037  00000+0  35962-4 0  9995
2 44387  98.9147 146.6210 0002318  61.0284 299.1127 14.24363294360054
ARKTIKA-M 1             
1 47719U 21016A   26153.03917935 -.00000200  00000+0  00000+0 0  9993
2 47719  63.2379  59.8266 7283239 269.8643  14.6915  2.00628509 38489
FENGYUN 3E              
1 49008U 21062A   26159.53426060  .00000137  00000+0  85256-4 0  9991
2 49008  98.7497 163.0390 0002743  99.3407 260.8080 14.19904217255359
GOES 18                 
1 51850U 22021A   26159.38789502  .00000113  00000+0  00000+0 0  9994
2 51850   0.0385 138.9178 0000493 359.3563 121.1468  1.00270309  6500
NOAA 21 (JPSS-2)        
1 54234U 22150A   26159.43521376  .00000067  00000+0  52549-4 0  9993
2 54234  98.7058  98.3714 0001142 175.3449 184.7738 14.19563971185301
METEOSAT-12 (MTG-I1)    
1 54743U 22170C   26159.34367050  .00000007  00000+0  00000+0 0  9991
2 54743   0.7281  21.4232 0003417  71.1807 287.4267  1.00271618 12887
TIANMU-1 03             
1 55973U 23039A   26159.51286314  .00014238  00000+0  28332-3 0  9997
2 55973  97.5238 333.1446 0004122 120.4808 239.6848 15.47038649179498
TIANMU-1 04             
1 55974U 23039B   26159.50566693  .00014348  00000+0  27973-3 0  9990
2 55974  97.5174 332.2903 0004733 117.6589 242.5142 15.47627214179502
TIANMU-1 05             
1 55975U 23039C   26159.49321334  .00013586  00000+0  27115-3 0  9991
2 55975  97.5216 332.7425 0003813 135.3032 224.8525 15.46963823179474
TIANMU-1 06             
1 55976U 23039D   26159.50851600  .00014726  00000+0  28798-3 0  9993
2 55976  97.5227 333.3853 0004035 131.9121 228.2473 15.47535020179506
FENGYUN 3G              
1 56232U 23055A   26159.48238388  .00022644  00000+0  34384-3 0  9992
2 56232  49.9936  30.8721 0005596 164.8545 195.2592 15.54426183178658
METEOR-M2 3             
1 57166U 23091A   26159.52646873 -.00000006  00000+0  16348-4 0  9996
2 57166  98.6085 214.6816 0003859 178.5119 181.6072 14.24046088153289
TIANMU-1 07             
1 57399U 23101A   26159.46573323  .00005836  00000+0  20534-3 0  9994
2 57399  97.2597 210.3350 0003581 139.7303 220.4203 15.29706001160316
TIANMU-1 08             
1 57400U 23101B   26159.49781395  .00005910  00000+0  20783-3 0  9999
2 57400  97.2586 210.1381 0005156 136.3604 223.8046 15.29711262160313
TIANMU-1 09             
1 57401U 23101C   26159.54680834  .00006394  00000+0  22447-3 0  9998
2 57401  97.2544 209.6061 0003972 146.7505 213.3986 15.29740580160328
TIANMU-1 10             
1 57402U 23101D   26159.51428457  .00006160  00000+0  21650-3 0  9993
2 57402  97.2624 210.6160 0005554 149.1979 210.9589 15.29710962160312
FENGYUN 3F              
1 57490U 23111A   26159.51837963  .00000052  00000+0  44949-4 0  9998
2 57490  98.6836 229.6884 0001574  99.2054 260.9300 14.19937679147639
ARKTIKA-M 2             
1 58584U 23198A   26154.30372208  .00000150  00000+0  00000+0 0  9990
2 58584  63.2209 155.9142 6898549 267.4684  18.7857  2.00591941 18047
TIANMU-1 11             
1 58645U 23205A   26159.46880001  .00005491  00000+0  21030-3 0  9997
2 58645  97.3453 181.1630 0009949  45.2601 314.9446 15.26904912136190
TIANMU-1 12             
1 58646U 23205B   26159.50448780  .00005362  00000+0  20575-3 0  9997
2 58646  97.3441 180.9556 0007795  32.7088 327.4632 15.26867365136184
TIANMU-1 13             
1 58647U 23205C   26159.47029924  .00005602  00000+0  21584-3 0  9997
2 58647  97.3469 181.1932 0006976  13.8418 346.3011 15.26721359136175
TIANMU-1 14             
1 58648U 23205D   26159.52130001  .00005538  00000+0  21305-3 0  9992
2 58648  97.3405 180.4321 0007946  16.9548 343.1955 15.26766972136189
TIANMU-1 19             
1 58660U 23208A   26159.46646189  .00007852  00000+0  26110-3 0  9991
2 58660  97.4491 275.7235 0004560   4.3187 355.8093 15.31442358135996
TIANMU-1 20             
1 58661U 23208B   26159.51103328  .00008016  00000+0  25670-3 0  9994
2 58661  97.4434 276.3946 0006806   7.0598 353.0739 15.32635421136096
